start=new Date('2022-01-21T00:00:00.000Z').valueOf();
sats=[{"MEAN_MOTION_DOT":"0.00001302","BSTAR":"0.00010633000000","GP_ID":"194261084","CLASSIFICATION_TYPE":"U","TLE_LINE2":"2 47817  53.0559 186.0924 0002481  80.6997 279.4273 15.06396048 49133","MEAN_ELEMENT_THEORY":"SGP4","PERIAPSIS":"545.507","SITE":"AFETR","INCLINATION":"53.0559","MEAN_MOTION":"15.06396048","TLE_LINE1":"1 47817U 21018AG  22020.61827837  .00001302  00000-0  10633-3 0  9999","SEMIMAJOR_AXIS":"6925.361","COUNTRY_CODE":"US","TIME_SYSTEM":"UTC","PERIOD":"95.592","RCS_SIZE":"LARGE","ARG_OF_PERICENTER":"80.6997","LAUNCH_DATE":"2021-03-11","CENTER_NAME":"EARTH","RA_OF_ASC_NODE":"186.0924","OBJECT_TYPE":"PAYLOAD","FILE":"3278533","REV_AT_EPOCH":"4913","OBJECT_NAME":"STARLINK-2400","EPHEMERIS_TYPE":"0","MEAN_MOTION_DDOT":"0.0000000000000","OBJECT_ID":"2021-018AG","ELEMENT_SET_NO":"999","REF_FRAME":"TEME","MEAN_ANOMALY":"279.4273","APOAPSIS":"548.944","ECCENTRICITY":"0.00024810","NORAD_CAT_ID":"47817","EPOCH":"2022-01-20T14:50:19.251168","DECAY_DATE":null},{"RA_OF_ASC_NODE":"190.3896","OBJECT_TYPE":"PAYLOAD","FILE":"3278644","REV_AT_EPOCH":"4876","RCS_SIZE":"LARGE","ARG_OF_PERICENTER":"80.8677","LAUNCH_DATE":"2021-03-11","CENTER_NAME":"EARTH","TIME_SYSTEM":"UTC","PERIOD":"95.593","SEMIMAJOR_AXIS":"6925.368","COUNTRY_CODE":"US","MEAN_MOTION":"15.06393708","TLE_LINE1":"1 47818U 21018AH  22020.77816132 -.00000550  00000-0 -18021-4 0  9999","TLE_LINE2":"2 47818  53.0547 190.3896 0002353  80.8677 279.2578 15.06393708 48766","MEAN_ELEMENT_THEORY":"SGP4","CLASSIFICATION_TYPE":"U","PERIAPSIS":"545.603","SITE":"AFETR","INCLINATION":"53.0547","BSTAR":"-0.00001802100000","GP_ID":"194266820","MEAN_MOTION_DOT":"-0.00000550","ECCENTRICITY":"0.00023530","NORAD_CAT_ID":"47818","EPOCH":"2022-01-20T18:40:33.138048","DECAY_DATE":null,"APOAPSIS":"548.862","REF_FRAME":"TEME","MEAN_ANOMALY":"279.2578","MEAN_MOTION_DDOT":"0.0000000000000","OBJECT_ID":"2021-018AH","ELEMENT_SET_NO":"999","OBJECT_NAME":"STARLINK-2401","EPHEMERIS_TYPE":"0"},{"PERIOD":"95.592","TIME_SYSTEM":"UTC","COUNTRY_CODE":"US","SEMIMAJOR_AXIS":"6925.364","REV_AT_EPOCH":"4920","FILE":"3278533","OBJECT_TYPE":"PAYLOAD","RA_OF_ASC_NODE":"186.0956","CENTER_NAME":"EARTH","LAUNCH_DATE":"2021-03-11","ARG_OF_PERICENTER":"79.7245","RCS_SIZE":"MEDIUM","BSTAR":"0.00004408200000","GP_ID":"194259583","MEAN_MOTION_DOT":"0.00000375","TLE_LINE1":"1 47819U 21018AJ  22020.62196602  .00000375  00000-0  44082-4 0  9996","MEAN_MOTION":"15.06394807","SITE":"AFETR","INCLINATION":"53.0523","PERIAPSIS":"545.659","MEAN_ELEMENT_THEORY":"SGP4","TLE_LINE2":"2 47819  53.0523 186.0956 0002267  79.7245 280.3999 15.06394807 49203","CLASSIFICATION_TYPE":"U","DECAY_DATE":null,"EPOCH":"2022-01-20T14:55:37.864128","NORAD_CAT_ID":"47819","ECCENTRICITY":"0.00022670","APOAPSIS":"548.799","EPHEMERIS_TYPE":"0","OBJECT_NAME":"STARLINK-2402","MEAN_ANOMALY":"280.3999","REF_FRAME":"TEME","ELEMENT_SET_NO":"999","OBJECT_ID":"2021-018AJ","MEAN_MOTION_DDOT":"0.0000000000000"},{"EPHEMERIS_TYPE":"0","OBJECT_NAME":"STARLINK-2403","ELEMENT_SET_NO":"999","MEAN_MOTION_DDOT":"0.0000000000000","OBJECT_ID":"2021-018AK","REF_FRAME":"TEME","MEAN_ANOMALY":"282.0368","APOAPSIS":"548.811","EPOCH":"2022-01-20T11:16:42.361536","DECAY_DATE":null,"ECCENTRICITY":"0.00022530","NORAD_CAT_ID":"47820","MEAN_MOTION_DOT":"-0.00000204","BSTAR":"0.00000524350000","GP_ID":"194259829","PERIAPSIS":"545.691","INCLINATION":"53.0552","SITE":"AFETR","TLE_LINE2":"2 47820  53.0552 196.7816 0002253  78.0874 282.0368 15.06387852 49037","CLASSIFICATION_TYPE":"U","MEAN_ELEMENT_THEORY":"SGP4","TLE_LINE1":"1 47820U 21018AK  22020.46993474 -.00000204  00000-0  52435-5 0  9996","MEAN_MOTION":"15.06387852","COUNTRY_CODE":"US","SEMIMAJOR_AXIS":"6925.386","TIME_SYSTEM":"UTC","PERIOD":"95.593","CENTER_NAME":"EARTH","RCS_SIZE":"LARGE","ARG_OF_PERICENTER":"78.0874","LAUNCH_DATE":"2021-03-11","FILE":"3278533","REV_AT_EPOCH":"4903","RA_OF_ASC_NODE":"196.7816","OBJECT_TYPE":"PAYLOAD"},{"PERIOD":"95.593","TIME_SYSTEM":"UTC","SEMIMAJOR_AXIS":"6925.369","COUNTRY_CODE":"US","OBJECT_TYPE":"PAYLOAD","RA_OF_ASC_NODE":"186.2803","REV_AT_EPOCH":"4913","FILE":"3278533","LAUNCH_DATE":"2021-03-11","RCS_SIZE":"LARGE","ARG_OF_PERICENTER":"83.1039","CENTER_NAME":"EARTH","BSTAR":"-0.00002001600000","GP_ID":"194260584","MEAN_MOTION_DOT":"-0.00000580","MEAN_MOTION":"15.06393419","TLE_LINE1":"1 47821U 21018AL  22020.58047382 -.00000580  00000-0 -20016-4 0  9995","MEAN_ELEMENT_THEORY":"SGP4","TLE_LINE2":"2 47821  53.0526 186.2803 0002538  83.1039 277.0239 15.06393419 49133","CLASSIFICATION_TYPE":"U","INCLINATION":"53.0526","SITE":"AFETR","PERIAPSIS":"545.476","NORAD_CAT_ID":"47821","ECCENTRICITY":"0.00025380","DECAY_DATE":null,"EPOCH":"2022-01-20T13:55:52.938048","APOAPSIS":"548.991","OBJECT_NAME":"STARLINK-2406","EPHEMERIS_TYPE":"0","MEAN_ANOMALY":"277.0239","REF_FRAME":"TEME","OBJECT_ID":"2021-018AL","MEAN_MOTION_DDOT":"0.0000000000000","ELEMENT_SET_NO":"999"},{"COUNTRY_CODE":"US","SEMIMAJOR_AXIS":"6925.393","PERIOD":"95.593","TIME_SYSTEM":"UTC","CENTER_NAME":"EARTH","LAUNCH_DATE":"2021-03-11","RCS_SIZE":"LARGE","ARG_OF_PERICENTER":"73.8039","REV_AT_EPOCH":"4869","FILE":"3278569","RA_OF_ASC_NODE":"195.3285","OBJECT_TYPE":"PAYLOAD","MEAN_MOTION_DOT":"0.00001022","BSTAR":"0.00008758400000","GP_ID":"194265567","SITE":"AFETR","INCLINATION":"53.0547","PERIAPSIS":"545.573","TLE_LINE2":"2 47822  53.0547 195.3285 0002434  73.8039 286.3218 15.06385383 48694","MEAN_ELEMENT_THEORY":"SGP4","CLASSIFICATION_TYPE":"U","TLE_LINE1":"1 47822U 21018AM  22020.79062004  .00001022  00000-0  87584-4 0  9990","MEAN_MOTION":"15.06385383","APOAPSIS":"548.944","DECAY_DATE":null,"EPOCH":"2022-01-20T18:58:29.571456","NORAD_CAT_ID":"47822","ECCENTRICITY":"0.00024340","EPHEMERIS_TYPE":"0","OBJECT_NAME":"STARLINK-2407","ELEMENT_SET_NO":"999","OBJECT_ID":"2021-018AM","MEAN_MOTION_DDOT":"0.0000000000000","MEAN_ANOMALY":"286.3218","REF_FRAME":"TEME"},{"BSTAR":"0.00006452200000","GP_ID":"194267231","MEAN_MOTION_DOT":"0.00000679","TLE_LINE1":"1 47823U 21018AN  22020.73991385  .00000679  00000-0  64522-4 0  9992","MEAN_MOTION":"15.06400074","SITE":"AFETR","INCLINATION":"53.0545","PERIAPSIS":"545.602","MEAN_ELEMENT_THEORY":"SGP4","TLE_LINE2":"2 47823  53.0545 185.5674 0002327  77.0134 283.1115 15.06400074 48820","CLASSIFICATION_TYPE":"U","PERIOD":"95.592","TIME_SYSTEM":"UTC","COUNTRY_CODE":"US","SEMIMAJOR_AXIS":"6925.348","REV_AT_EPOCH":"4882","FILE":"3278642","RA_OF_ASC_NODE":"185.5674","OBJECT_TYPE":"PAYLOAD","CENTER_NAME":"EARTH","LAUNCH_DATE":"2021-03-11","RCS_SIZE":"LARGE","ARG_OF_PERICENTER":"77.0134","EPHEMERIS_TYPE":"0","OBJECT_NAME":"STARLINK-2408","MEAN_ANOMALY":"283.1115","REF_FRAME":"TEME","ELEMENT_SET_NO":"999","OBJECT_ID":"2021-018AN","MEAN_MOTION_DDOT":"0.0000000000000","DECAY_DATE":null,"EPOCH":"2022-01-20T17:45:28.556640","NORAD_CAT_ID":"47823","ECCENTRICITY":"0.00023270","APOAPSIS":"548.825"},{"MEAN_MOTION_DOT":"-0.00000271","BSTAR":"0.00000074928000","GP_ID":"194260330","PERIAPSIS":"545.696","INCLINATION":"53.0535","SITE":"AFETR","MEAN_ELEMENT_THEORY":"SGP4","TLE_LINE2":"2 47824  53.0535 186.2093 0002202  76.5332 283.5902 15.06397693 49134","CLASSIFICATION_TYPE":"U","TLE_LINE1":"1 47824U 21018AP  22020.59616080 -.00000271  00000-0  74928-6 0  9995","MEAN_MOTION":"15.06397693","COUNTRY_CODE":"US","SEMIMAJOR_AXIS":"6925.356","TIME_SYSTEM":"UTC","PERIOD":"95.592","CENTER_NAME":"EARTH","ARG_OF_PERICENTER":"76.5332","RCS_SIZE":"LARGE","LAUNCH_DATE":"2021-03-11","FILE":"3278533","REV_AT_EPOCH":"4913","RA_OF_ASC_NODE":"186.2093","OBJECT_TYPE":"PAYLOAD","EPHEMERIS_TYPE":"0","OBJECT_NAME":"STARLINK-2409","ELEMENT_SET_NO":"999","MEAN_MOTION_DDOT":"0.0000000000000","OBJECT_ID":"2021-018AP","REF_FRAME":"TEME","MEAN_ANOMALY":"283.5902","APOAPSIS":"548.746","EPOCH":"2022-01-20T14:18:28.293120","DECAY_DATE":null,"ECCENTRICITY":"0.00022020","NORAD_CAT_ID":"47824"},{"TIME_SYSTEM":"UTC","PERIOD":"95.592","SEMIMAJOR_AXIS":"6925.363","COUNTRY_CODE":"US","OBJECT_TYPE":"PAYLOAD","RA_OF_ASC_NODE":"186.1197","FILE":"3278533","REV_AT_EPOCH":"4914","RCS_SIZE":"LARGE","ARG_OF_PERICENTER":"80.5915","LAUNCH_DATE":"2021-03-11","CENTER_NAME":"EARTH","GP_ID":"194261085","BSTAR":"-0.00007465100000","MEAN_MOTION_DOT":"-0.00001393","MEAN_MOTION":"15.06395296","TLE_LINE1":"1 47825U 21018AQ  22020.61459779 -.00001393  00000-0 -74651-4 0  9997","TLE_LINE2":"2 47825  53.0566 186.1197 0001936  80.5915 279.5293 15.06395296 49144","CLASSIFICATION_TYPE":"U","MEAN_ELEMENT_THEORY":"SGP4","PERIAPSIS":"545.887","INCLINATION":"53.0566","SITE":"AFETR","ECCENTRICITY":"0.00019360","NORAD_CAT_ID":"47825","EPOCH":"2022-01-20T14:45:01.249056","DECAY_DATE":null,"APOAPSIS":"548.569","OBJECT_NAME":"STARLINK-2410","EPHEMERIS_TYPE":"0","REF_FRAME":"TEME","MEAN_ANOMALY":"279.5293","MEAN_MOTION_DDOT":"0.0000000000000","OBJECT_ID":"2021-018AQ","ELEMENT_SET_NO":"999"},{"TLE_LINE2":"2 47826  53.0559 185.5517 0002383  81.0128 279.1131 15.06401707 48821","CLASSIFICATION_TYPE":"U","MEAN_ELEMENT_THEORY":"SGP4","PERIAPSIS":"545.558","INCLINATION":"53.0559","SITE":"AFETR","MEAN_MOTION":"15.06401707","TLE_LINE1":"1 47826U 21018AR  22020.74359666 -.00000366  00000-0 -56702-5 0  9993","MEAN_MOTION_DOT":"-0.00000366","BSTAR":"-0.00000567020000","GP_ID":"194269145","RCS_SIZE":"LARGE","ARG_OF_PERICENTER":"81.0128","LAUNCH_DATE":"2021-03-11","CENTER_NAME":"EARTH","RA_OF_ASC_NODE":"185.5517","OBJECT_TYPE":"PAYLOAD","FILE":"3278721","REV_AT_EPOCH":"4882","SEMIMAJOR_AXIS":"6925.343","COUNTRY_CODE":"US","TIME_SYSTEM":"UTC","PERIOD":"95.592","MEAN_MOTION_DDOT":"0.0000000000000","OBJECT_ID":"2021-018AR","ELEMENT_SET_NO":"999","REF_FRAME":"TEME","MEAN_ANOMALY":"279.1131","OBJECT_NAME":"STARLINK-2411","EPHEMERIS_TYPE":"0","APOAPSIS":"548.859","ECCENTRICITY":"0.00023830","NORAD_CAT_ID":"47826","EPOCH":"2022-01-20T17:50:46.751424","DECAY_DATE":null}];
